GLOBALSTAR M023         
1 25621U 99004A   24270.02744362  .00000032  00000+0  75763-3 0  9996
2 25621  52.0092 137.8031 0009236 264.5824 242.7495 12.62475458182457
GLOBALSTAR M040         
1 25622U 99004B   24269.94926654 -.00000059  00000+0  24875-3 0  9990
2 25622  51.9900 141.8006 0001009 119.8514 253.8930 12.61984550181890
GLOBALSTAR M036         
1 25623U 99004C   24269.64646341 -.00000247  00000+0 -23944-2 0  9995
2 25623  51.9954 217.5814 0010438 266.6148 264.7805 11.86580229147578
GLOBALSTAR M038         
1 25624U 99004D   24270.52285347 -.00000066  00000+0  23611-3 0  9990
2 25624  51.9956 110.8843 0001188 199.3768 179.1397 12.32508729169824
GLOBALSTAR M022         
1 25649U 99012A   24269.76998939 -.00000070  00000+0  19675-3 0  9998
2 25649  52.0040 289.7052 0002449  11.7908 159.7201 12.02488363144569
GLOBALSTAR M041         
1 25650U 99012B   24270.02067271 -.00000129  00000+0 -55716-3 0  9999
2 25650  52.0006 162.4182 0002476 148.6283 211.4701 11.96659235146901
GLOBALSTAR M046         
1 25651U 99012C   24269.73292502 -.00000125  00000+0 -40131-3 0  9994
2 25651  52.0035 249.5924 0002451  80.2679  91.1236 12.09398575151665
GLOBALSTAR M037         
1 25652U 99012D   24270.38872834 -.00000070  00000+0  19001-3 0  9990
2 25652  51.9991 267.4170 0001856 331.4052 171.4042 12.62419082178001
